0 COSMOS 1527
1 14616U 84001F   13281.46267573 -.00000009  00000-0  46465-4 0  2482
2 14616 074.0091 327.4221 0002660 281.1374 204.9743 12.51036380948001
0 COSMOS 1527
1 14616U 84001F   13283.52920264  .00000015  00000-0  20104-3 0  2492
2 14616 074.0088 324.6669 0002669 278.9713 151.1154 12.51036191948269
0 COSMOS 1527
1 14616U 84001F   13285.53752595  .00000021  00000-0  23969-3 0  2506
2 14616 074.0083 321.9894 0002674 276.8005 195.2140 12.51036246948514
0 COSMOS 1527
1 14616U 84001F   13287.54598177  .00000006  00000-0  14238-3 0  2516
2 14616 074.0078 319.3114 0002676 274.6581 239.8805 12.51036518948763
0 COSMOS 1527
1 14616U 84001F   13289.77699313 -.00000017  00000-0 -36325-5 0  2525
2 14616 074.0076 316.3365 0002677 272.3492 206.7108 12.51036812949041
0 COSMOS 1527
1 14616U 84001F   13292.16421387 -.00000028  00000-0 -75786-4 0  2532
2 14616 074.0076 313.1530 0002660 269.3114 157.5627 12.51036835949346
0 COSMOS 1527
1 14616U 84001F   13294.50556473 -.00000003  00000-0  86748-4 0  2540
2 14616 074.0076 310.0310 0002662 267.1508 261.0220 12.51036642949631
